{
  "type": "FeatureCollection",
  "features": [
    {
      "type": "Feature",
      "properties": {
        "norad_id": 35052,
        "name": "IRIDIUM 33 DEB",
        "group": "iridium-33-debris",
        "lat": 19.43676848129395,
        "lon": -159.4241358894731,
        "alt_km": 759.8363902006759,
        "timestamp": "2025-12-09T11:33:55.186106+00:00",
        "meta_object_name": "IRIDIUM 33 DEB",
        "meta_object_id": "1997-051NY",
        "meta_epoch": "2025-12-08T19:47:53.049120",
        "meta_mean_motion": 14.38486321,
        "meta_eccentricity": 0.00136868,
        "meta_inclination": 86.3313,
        "meta_ra_of_asc_node": 22.1547,
        "meta_arg_of_pericenter": 95.9359,
        "meta_mean_anomaly": 264.34,
        "meta_ephemeris_type": 0,
        "meta_classification_type": "U",
        "meta_norad_cat_id": 35052,
        "meta_element_set_no": 999,
        "meta_rev_at_epoch": 87219,
        "meta_bstar": 0.00035523348,
        "meta_mean_motion_dot": 1.105e-05,
        "meta_mean_motion_ddot": 0,
        "tle_line1": "1 35052U 97051NY  25342.82491955  .00001105  00000+0  35523-3 0  9993",
        "tle_line2": "2 35052  86.3313  22.1547 0013686  95.9359 264.3400 14.38486321872192"
      },
      "geometry": {
        "type": "Point",
        "coordinates": [
          -159.4241358894731,
          19.43676848129395
        ]
      }
    },
    {
      "type": "Feature",
      "properties": {
        "norad_id": 35080,
        "name": "IRIDIUM 33 DEB",
        "group": "iridium-33-debris",
        "lat": 38.557602746068106,
        "lon": -129.09996739913393,
        "alt_km": 582.0169741524305,
        "timestamp": "2025-12-09T11:33:55.186116+00:00",
        "meta_object_name": "IRIDIUM 33 DEB",
        "meta_object_id": "1997-051PF",
        "meta_epoch": "2025-12-09T04:27:39.650976",
        "meta_mean_motion": 14.85337846,
        "meta_eccentricity": 0.0061601,
        "meta_inclination": 86.206,
        "meta_ra_of_asc_node": 54.0734,
        "meta_arg_of_pericenter": 192.7103,
        "meta_mean_anomaly": 167.2572,
        "meta_ephemeris_type": 0,
        "meta_classification_type": "U",
        "meta_norad_cat_id": 35080,
        "meta_element_set_no": 999,
        "meta_rev_at_epoch": 69635,
        "meta_bstar": 0.009631,
        "meta_mean_motion_dot": 0.00086603,
        "meta_mean_motion_ddot": 0,
        "tle_line1": "1 35080U 97051PF  25343.18587559  .00086603  00000+0  96310-2 0  9996",
        "tle_line2": "2 35080  86.2060  54.0734 0061601 192.7103 167.2572 14.85337846696358"
      },
      "geometry": {
        "type": "Point",
        "coordinates": [
          -129.09996739913393,
          38.557602746068106
        ]
      }
    },
    {
      "type": "Feature",
      "properties": {
        "norad_id": 35297,
        "name": "IRIDIUM 33 DEB",
        "group": "iridium-33-debris",
        "lat": -10.898593353056825,
        "lon": 63.453661240251236,
        "alt_km": 757.3767590819889,
        "timestamp": "2025-12-09T11:33:55.186126+00:00",
        "meta_object_name": "IRIDIUM 33 DEB",
        "meta_object_id": "1997-051PM",
        "meta_epoch": "2025-12-06T00:31:29.302752",
        "meta_mean_motion": 14.45108459,
        "meta_eccentricity": 0.00170329,
        "meta_inclination": 86.3867,
        "meta_ra_of_asc_node": 65.6268,
        "meta_arg_of_pericenter": 161.2449,
        "meta_mean_anomaly": 198.9384,
        "meta_ephemeris_type": 0,
        "meta_classification_type": "U",
        "meta_norad_cat_id": 35297,
        "meta_element_set_no": 999,
        "meta_rev_at_epoch": 70329,
        "meta_bstar": 0.0012426888,
        "meta_mean_motion_dot": 4.371e-05,
        "meta_mean_motion_ddot": 0,
        "tle_line1": "1 35297U 97051PM  25340.02186693  .00004371  00000+0  12427-2 0  9999",
        "tle_line2": "2 35297  86.3867  65.6268 0017032 161.2449 198.9384 14.45108459703293"
      },
      "geometry": {
        "type": "Point",
        "coordinates": [
          63.453661240251236,
          -10.898593353056825
        ]
      }
    },
    {
      "type": "Feature",
      "properties": {
        "norad_id": 35299,
        "name": "IRIDIUM 33 DEB",
        "group": "iridium-33-debris",
        "lat": -28.077559186511724,
        "lon": 32.61998101984015,
        "alt_km": 794.0822249452649,
        "timestamp": "2025-12-09T11:33:55.186136+00:00",
        "meta_object_name": "IRIDIUM 33 DEB",
        "meta_object_id": "1997-051PP",
        "meta_epoch": "2025-12-09T03:37:25.281984",
        "meta_mean_motion": 14.40832112,
        "meta_eccentricity": 0.005889,
        "meta_inclination": 86.2882,
        "meta_ra_of_asc_node": 34.7485,
        "meta_arg_of_pericenter": 113.8076,
        "meta_mean_anomaly": 303.2931,
        "meta_ephemeris_type": 0,
        "meta_classification_type": "U",
        "meta_norad_cat_id": 35299,
        "meta_element_set_no": 999,
        "meta_rev_at_epoch": 86279,
        "meta_bstar": 0.00094086,
        "meta_mean_motion_dot": 3.095e-05,
        "meta_mean_motion_ddot": 0,
        "tle_line1": "1 35299U 97051PP  25343.15098706  .00003095  00000+0  94086-3 0  9999",
        "tle_line2": "2 35299  86.2882  34.7485 0058890 113.8076 303.2931 14.40832112862790"
      },
      "geometry": {
        "type": "Point",
        "coordinates": [
          32.61998101984015,
          -28.077559186511724
        ]
      }
    },
    {
      "type": "Feature",
      "properties": {
        "norad_id": 35480,
        "name": "IRIDIUM 33 DEB",
        "group": "iridium-33-debris",
        "lat": -32.13609948576959,
        "lon": 24.03255869517623,
        "alt_km": 741.5979827478031,
        "timestamp": "2025-12-09T11:33:55.186146+00:00",
        "meta_object_name": "IRIDIUM 33 DEB",
        "meta_object_id": "1997-051QA",
        "meta_epoch": "2025-12-01T21:29:27.496896",
        "meta_mean_motion": 14.49686619,
        "meta_eccentricity": 0.00155495,
        "meta_inclination": 86.3575,
        "meta_ra_of_asc_node": 29.6125,
        "meta_arg_of_pericenter": 136.7189,
        "meta_mean_anomaly": 223.524,
        "meta_ephemeris_type": 0,
        "meta_classification_type": "U",
        "meta_norad_cat_id": 35480,
        "meta_element_set_no": 999,
        "meta_rev_at_epoch": 86874,
        "meta_bstar": 0.000651702,
        "meta_mean_motion_dot": 2.53e-05,
        "meta_mean_motion_ddot": 0,
        "tle_line1": "1 35480U 97051QA  25335.89545714  .00002530  00000+0  65170-3 0  9994",
        "tle_line2": "2 35480  86.3575  29.6125 0015549 136.7189 223.5240 14.49686619868745"
      },
      "geometry": {
        "type": "Point",
        "coordinates": [
          24.03255869517623,
          -32.13609948576959
        ]
      }
    },
    {
      "type": "Feature",
      "properties": {
        "norad_id": 35484,
        "name": "IRIDIUM 33 DEB",
        "group": "iridium-33-debris",
        "lat": -76.77336263600714,
        "lon": -21.442892512622485,
        "alt_km": 593.0116899007744,
        "timestamp": "2025-12-09T11:33:55.186156+00:00",
        "meta_object_name": "IRIDIUM 33 DEB",
        "meta_object_id": "1997-051QE",
        "meta_epoch": "2025-12-08T18:16:45.445440",
        "meta_mean_motion": 14.98255885,
        "meta_eccentricity": 0.00231436,
        "meta_inclination": 86.3606,
        "meta_ra_of_asc_node": 354.6057,
        "meta_arg_of_pericenter": 138.3484,
        "meta_mean_anomaly": 221.9516,
        "meta_ephemeris_type": 0,
        "meta_classification_type": "U",
        "meta_norad_cat_id": 35484,
        "meta_element_set_no": 999,
        "meta_rev_at_epoch": 61956,
        "meta_bstar": 0.0033289161,
        "meta_mean_motion_dot": 0.00039967,
        "meta_mean_motion_ddot": 0,
        "tle_line1": "1 35484U 97051QE  25342.76163710  .00039967  00000+0  33289-2 0  9993",
        "tle_line2": "2 35484  86.3606 354.6057 0023143 138.3484 221.9516 14.98255885619567"
      },
      "geometry": {
        "type": "Point",
        "coordinates": [
          -21.442892512622485,
          -76.77336263600714
        ]
      }
    },
    {
      "type": "Feature",
      "properties": {
        "norad_id": 35488,
        "name": "IRIDIUM 33 DEB",
        "group": "iridium-33-debris",
        "lat": -33.4717808792997,
        "lon": 124.81554086594107,
        "alt_km": 646.3959398017332,
        "timestamp": "2025-12-09T11:33:55.186166+00:00",
        "meta_object_name": "IRIDIUM 33 DEB",
        "meta_object_id": "1997-051QJ",
        "meta_epoch": "2025-12-08T21:39:05.105088",
        "meta_mean_motion": 14.8290127,
        "meta_eccentricity": 0.0030312,
        "meta_inclination": 86.3246,
        "meta_ra_of_asc_node": 302.6469,
        "meta_arg_of_pericenter": 55.0525,
        "meta_mean_anomaly": 305.3538,
        "meta_ephemeris_type": 0,
        "meta_classification_type": "U",
        "meta_norad_cat_id": 35488,
        "meta_element_set_no": 999,
        "meta_rev_at_epoch": 88209,
        "meta_bstar": 0.0019549,
        "meta_mean_motion_dot": 0.00016018,
        "meta_mean_motion_ddot": 0,
        "tle_line1": "1 35488U 97051QJ  25342.90214242  .00016018  00000+0  19549-2 0  9995",
        "tle_line2": "2 35488  86.3246 302.6469 0030312  55.0525 305.3538 14.82901270882098"
      },
      "geometry": {
        "type": "Point",
        "coordinates": [
          124.81554086594107,
          -33.4717808792997
        ]
      }
    }
  ]
}